Satellite: UO-11
Catalog number: 14781
Epoch time:      06264.08855022
Element set:     179
Inclination:      098.2080 deg
RA of node:       276.3455 deg
Eccentricity:    0.0008563
Arg of perigee:   323.0763 deg
Mean anomaly:     036.9846 deg
Mean motion:   14.79464079 rev/day
Decay rate:       4.11e-06 rev/day^2
Epoch rev:           20994
Checksum:              320

Satellite: RS-10/11
Catalog number: 18129
Epoch time:      06264.10289470
Element set:      96
Inclination:      082.9217 deg
RA of node:       257.1977 deg
Eccentricity:    0.0011114
Arg of perigee:   179.4070 deg
Mean anomaly:     180.7100 deg
Mean motion:   13.72778684 rev/day
Decay rate:        3.6e-07 rev/day^2
Epoch rev:           96431
Checksum:              304

Satellite: RS-15
Catalog number: 23439
Epoch time:      06261.94058305
Element set:    0037
Inclination:      064.8162 deg
RA of node:       085.5947 deg
Eccentricity:    0.0166387
Arg of perigee:   237.8312 deg
Mean anomaly:     120.6379 deg
Mean motion:   11.27551951 rev/day
Decay rate:       -3.9e-07 rev/day^2
Epoch rev:           48311
Checksum:              314

Satellite: FO-29
Catalog number: 24278
Epoch time:      06263.57125813
Element set:     323
Inclination:      098.5177 deg
RA of node:       254.9280 deg
Eccentricity:    0.0351411
Arg of perigee:   062.3521 deg
Mean anomaly:     301.2823 deg
Mean motion:   13.52923379 rev/day
Decay rate:       -4.5e-07 rev/day^2
Epoch rev:           49844
Checksum:              305

Satellite: SO-33
Catalog number: 25509
Epoch time:      06264.49124438
Element set:     749
Inclination:      031.4343 deg
RA of node:       304.8629 deg
Eccentricity:    0.0355656
Arg of perigee:   238.3510 deg
Mean anomaly:     118.1953 deg
Mean motion:   14.28117916 rev/day
Decay rate:       2.40e-06 rev/day^2
Epoch rev:           41281
Checksum:              302

Satellite: VO-52
Catalog number: 28650
Epoch time:      06263.71354163
Element set:     433
Inclination:      097.8644 deg
RA of node:       335.0156 deg
Eccentricity:    0.0028287
Arg of perigee:   052.3063 deg
Mean anomaly:     308.0718 deg
Mean motion:   14.81176026 rev/day
Decay rate:       4.82e-06 rev/day^2
Epoch rev:            7452
Checksum:              297

/EX
SB KEPS @ AMSAT  $ORB06264.D
Orbital Elements  06264.MICROS

HR AMSAT ORBITAL ELEMENTS FOR THE MICROSATS
FROM WA5QGD FORT WORTH,TX September 21, 2006
Send SUBSCRIBE KEPS/UNSUBSCRIBE KEPS to majordomo at amsat.org only
BID: ORB06264.D
TO ALL RADIO AMATEURS BT

Satellite: AO-16
Catalog number: 20439
Epoch time:      06263.75354107
Element set:     849
Inclination:      098.1908 deg
RA of node:       268.3322 deg
Eccentricity:    0.0010031
Arg of perigee:   272.2009 deg
Mean anomaly:     087.8011 deg
Mean motion:   14.31733373 rev/day
Decay rate:        2.3e-07 rev/day^2
Epoch rev:           86999
Checksum:              300

Satellite: LO-19
Catalog number: 20442
Epoch time:      06264.04697617
Element set:     784
Inclination:      098.1877 deg
RA of node:       278.1275 deg
Eccentricity:    0.0010986
Arg of perigee:   269.6457 deg
Mean anomaly:     090.3463 deg
Mean motion:   14.31976369 rev/day
Decay rate:        9.5e-07 rev/day^2
Epoch rev:           87017
Checksum:              356

Satellite: AO-27
Catalog number: 22825
Epoch time:      06263.52126714
Element set:     500
Inclination:      098.2934 deg
RA of node:       240.7179 deg
Eccentricity:    0.0008572
Arg of perigee:   346.6310 deg
Mean anomaly:     013.4644 deg
Mean motion:   14.29184180 rev/day
Decay rate:        6.6e-07 rev/day^2
Epoch rev:           67697
Checksum:              306

Satellite: IO-26
Catalog number: 22826
Epoch time:      06264.38479429
Element set:     193
Inclination:      098.2879 deg
RA of node:       242.7162 deg
Eccentricity:    0.0008914
Arg of perigee:   341.2777 deg
Mean anomaly:     018.8089 deg
Mean motion:   14.29428273 rev/day
Decay rate:        2.4e-07 rev/day^2
Epoch rev:           67717
Checksum:              346

Satellite: PO-28
Catalog number: 22829
Epoch time:      06264.47186637
Element set:     476
Inclination:      098.2773 deg
RA of node:       243.9970 deg
Eccentricity:    0.0009155
Arg of perigee:   314.0392 deg
Mean anomaly:     046.0049 deg
Mean motion:   14.30124209 rev/day
Decay rate:        7.7e-07 rev/day^2
Epoch rev:           67740
Checksum:              320

Satellite: GO-32
Catalog number: 25397
Epoch time:      06264.72334152
Element set:     115
Inclination:      098.4575 deg
RA of node:       318.1012 deg
Eccentricity:    0.0000827
Arg of perigee:   338.0615 deg
Mean anomaly:     022.0525 deg
Mean motion:   14.23110323 rev/day
Decay rate:      -1.29e-06 rev/day^2
Epoch rev:           42597
Checksum:              266

Satellite: MO-46
Catalog number: 26548
Epoch time:      06264.54115297
Element set:     601
Inclination:      064.5575 deg
RA of node:       293.7059 deg
Eccentricity:    0.0043026
Arg of perigee:   233.4443 deg
Mean anomaly:     126.2704 deg
Mean motion:   14.83020230 rev/day
Decay rate:       1.38e-06 rev/day^2
Epoch rev:           32369
Checksum:              289

Satellite: NO-44
Catalog number: 26931
Epoch time:      06263.71613305
Element set:     405
Inclination:      067.0520 deg
RA of node:       121.6183 deg
Eccentricity:    0.0005361
Arg of perigee:   251.1633 deg
Mean anomaly:     108.8914 deg
Mean motion:   14.29451673 rev/day
Decay rate:      -2.15e-06 rev/day^2
Epoch rev:           25958
Checksum:              280

Satellite: SO-50
Catalog number: 27607
Epoch time:      06264.28507578
Element set:     126
Inclination:      064.5586 deg
RA of node:       181.3785 deg
Eccentricity:    0.0035662
Arg of perigee:   107.3834 deg
Mean anomaly:     253.1157 deg
Mean motion:   14.71173295 rev/day
Decay rate:       -2.2e-07 rev/day^2
Epoch rev:           20156
Checksum:              305

Satellite: CO-55
Catalog number: 27844
Epoch time:      06263.67894041
Element set:     853
Inclination:      098.7246 deg
RA of node:       270.6532 deg
Eccentricity:    0.0009753
Arg of perigee:   143.0112 deg
Mean anomaly:     217.1743 deg
Mean motion:   14.20457994 rev/day
Decay rate:        5.8e-07 rev/day^2
Epoch rev:           16721
Checksum:              315

Satellite: CO-57
Catalog number: 27848
Epoch time:      06264.58164762
Element set:     819
Inclination:      098.7213 deg
RA of node:       270.8467 deg
Eccentricity:    0.0009814
Arg of perigee:   144.4115 deg
Mean anomaly:     215.7718 deg
Mean motion:   14.20284385 rev/day
Decay rate:        3.9e-07 rev/day^2
Epoch rev:           16732
Checksum:              332

