UO-11
1 14781U 84021B   06264.08855022  .00000411  00000-0  62346-4 0  1795
2 14781 098.2080 276.3455 0008563 323.0763 036.9846 14.79464079209949
RS-10/11
1 18129U 87054A   06264.10289470  .00000036  00000-0  23102-4 0   963
2 18129 082.9217 257.1977 0011114 179.4070 180.7100 13.72778684964319
RS-15
1 23439U 94085A   06261.94058305 -.00000039  00000-0  10597-3 0 00377
2 23439 064.8162 085.5947 0166387 237.8312 120.6379 11.27551951483117
FO-29
1 24278U 96046B   06263.57125813 -.00000045  00000-0 -12682-4 0  3232
2 24278 098.5177 254.9280 0351411 062.3521 301.2823 13.52923379498448
SO-33
1 25509U 98061B   06264.49124438  .00000240  00000-0  33338-4 0  7491
2 25509 031.4343 304.8629 0355656 238.3510 118.1953 14.28117916412819
VO-52
1 28650U 05017B   06263.71354163  .00000482  00000-0  68387-4 0  4334
2 28650 097.8644 335.0156 0028287 052.3063 308.0718 14.81176026 74521
AO-16
1 20439U 90005D   06263.75354107  .00000023  00000-0  23848-4 0  8499
2 20439 098.1908 268.3322 0010031 272.2009 087.8011 14.31733373869999
LO-19
1 20442U 90005G   06264.04697617  .00000095  00000-0  50445-4 0  7842
2 20442 098.1877 278.1275 0010986 269.6457 090.3463 14.31976369870176
AO-27
1 22825U 93061C   06263.52126714  .00000066  00000-0  42372-4 0  5005
2 22825 098.2934 240.7179 0008572 346.6310 013.4644 14.29184180676976
IO-26
1 22826U 93061D   06264.38479429  .00000024  00000-0  25497-4 0  1936
2 22826 098.2879 242.7162 0008914 341.2777 018.8089 14.29428273677176
PO-28
1 22829U 93061G   06264.47186637  .00000077  00000-0  45634-4 0  4762
2 22829 098.2773 243.9970 0009155 314.0392 046.0049 14.30124209677400
GO-32
1 25397U 98043D   06264.72334152 -.00000129  00000-0 -38737-4 0  1151
2 25397 098.4575 318.1012 0000827 338.0615 022.0525 14.23110323425978
MO-46
1 26548U 00057D   06264.54115297  .00000138  00000-0  34988-4 0  6017
2 26548 064.5575 293.7059 0043026 233.4443 126.2704 14.83020230323690
NO-44
1 26931U 01043C   06263.71613305 -.00000215  00000-0 -51833-4 0  4058
2 26931 067.0520 121.6183 0005361 251.1633 108.8914 14.29451673259583
SO-50
1 27607U 02058C   06264.28507578 -.00000022  00000-0  18178-4 0  1263
2 27607 064.5586 181.3785 0035662 107.3834 253.1157 14.71173295201567
CO-55
1 27844U 03031E   06263.67894041  .00000058  00000-0  47608-4 0  8539
2 27844 098.7246 270.6532 0009753 143.0112 217.1743 14.20457994167211
CO-57
1 27848U 03031J   06264.58164762  .00000039  00000-0  38788-4 0  8194
2 27848 098.7213 270.8467 0009814 144.4115 215.7718 14.20284385167324
